[{"OBJECT_NAME":"MINXSS-2","OBJECT_ID":"2018-099A","EPOCH":"2026-03-09T17:11:43.411488","MEAN_MOTION":15.40332084,"ECCENTRICITY":0.00075705,"INCLINATION":97.4625,"RA_OF_ASC_NODE":142.5474,"ARG_OF_PERICENTER":258.6187,"MEAN_ANOMALY":101.4208,"EPHEMERIS_TYPE":0,"CLASSIFICATION_TYPE":"U","NORAD_CAT_ID":43758,"ELEMENT_SET_NO":999,"REV_AT_EPOCH":39878,"BSTAR":0.00078488762,"MEAN_MOTION_DOT":0.00031693,"MEAN_MOTION_DDOT":0},{"OBJECT_NAME":"SL-3 R\/B","OBJECT_ID":"1981-046B","EPOCH":"2026-03-09T21:56:30.935616","MEAN_MOTION":15.42002593,"ECCENTRICITY":0.00195542,"INCLINATION":81.2298,"RA_OF_ASC_NODE":289.4744,"ARG_OF_PERICENTER":21.5372,"MEAN_ANOMALY":338.6689,"EPHEMERIS_TYPE":0,"CLASSIFICATION_TYPE":"U","NORAD_CAT_ID":12465,"ELEMENT_SET_NO":999,"REV_AT_EPOCH":43846,"BSTAR":0.00031641117,"MEAN_MOTION_DOT":0.00013615,"MEAN_MOTION_DDOT":0}]
